STARLINK-34110          
1 63811U 25092H   25127.75002315 -.00799738  21334-3 -16962-2 0  9994
2 63811  43.0012 112.3764 0001628 254.0661 255.2314 15.97790963  1735
STARLINK-34101          
1 63812U 25092J   25127.75002315 -.00804596  21602-3 -16930-2 0  9997
2 63812  43.0011 112.3748 0001714 252.3261 257.6437 15.97933622  1575
STARLINK-34065          
1 63813U 25092K   25127.75002315 -.00809362  21864-3 -16910-2 0  9992
2 63813  43.0011 112.3731 0001777 251.7279 258.8871 15.98060833  1637
STARLINK-34057          
1 63814U 25092L   25127.75002315 -.00820749  22461-3 -17010-2 0  9991
2 63814  43.0011 112.3715 0001694 259.3284 251.9600 15.98207131  1681
STARLINK-34060          
1 63815U 25092M   25127.75002315 -.00825227  22715-3 -16977-2 0  9991
2 63815  43.0011 112.3696 0001725 259.3206 252.6224 15.98339189  1576
STARLINK-34048          
1 63816U 25092N   25127.75002315 -.00826695  22817-3 -16897-2 0  9996
2 63816  43.0013 112.3682 0001765 263.0703 249.4997 15.98454814  1734
STARLINK-33959          
1 63817U 25092P   25127.75002315 -.00844868  23778-3 -17111-2 0  9996
2 63817  43.0012 112.3664 0001586 254.9880 258.2871 15.98621116  1730
STARLINK-34058          
1 63818U 25092Q   25127.75002315 -.00859082  24544-3 -17274-2 0  9993
2 63818  43.0012 112.3648 0001522 250.9192 263.0004 15.98751379  1732
STARLINK-34055          
1 63819U 25092R   25127.75002315 -.00856641  24445-3 -17122-2 0  9994
2 63819  43.0013 112.3636 0001552 252.6982 261.8348 15.98856778  1680
STARLINK-33794          
1 63820U 25092S   25127.75002315 -.00851726  24222-3 -16905-2 0  9996
2 63820  43.0014 112.3617 0001913 252.7001 262.4775 15.98978181  1680
STARLINK-34047          
1 63821U 25092T   25128.25002315 -.00842756  23590-3 -17378-2 0  9998
2 63821  43.0010 109.2237 0001635 259.8725 257.2458 15.98301308  1818
STARLINK-34094          
1 63822U 25092U   25127.75002315 -.00854732  24451-3 -16698-2 0  9991
2 63822  43.0015 112.3586 0001873 251.6631 264.8457 15.99257781  1736
STARLINK-34043          
1 63823U 25092V   25127.75002315 -.00858541  24681-3 -16659-2 0  9996
2 63823  43.0017 112.3570 0001864 251.6452 265.4962 15.99377619  1688
STARLINK-34025          
1 63824U 25092W   25127.75002315 -.00863714  24989-3 -16627-2 0  9991
2 63824  43.0016 112.3552 0001924 252.3861 265.4209 15.99517334  1625
STARLINK-33874          
1 63825U 25092X   25127.75002315 -.00868998  25311-3 -16577-2 0  9995
2 63825  43.0016 112.3534 0001895 251.8178 266.6905 15.99677807  1738
STARLINK-33781          
1 63826U 25092Y   25127.75002315 -.00873424  25583-3 -16535-2 0  9991
2 63826  43.0016 112.3519 0001932 252.6818 266.4818 15.99811475  1736
STARLINK-33891          
1 63827U 25092Z   25127.75002315 -.00876802  25795-3 -16492-2 0  9992
2 63827  43.0016 112.3502 0001949 253.4966 266.2878 15.99924715  1624
STARLINK-33903          
1 63828U 25092AA  25127.75002315 -.00880863  26050-3 -16442-2 0  9995
2 63828  43.0015 112.3483 0001964 252.5044 267.9354 16.00058685  1732
STARLINK-33889          
1 63829U 25092AB  25127.75002315 -.00886453  26471-3 -16153-2 0  9993
2 63829  43.0014 112.3432 0002148 257.1486 265.3018 16.00476236  1636
STARLINK-33984          
1 63830U 25092AC  25127.75002315 -.00889081  26537-3 -16451-2 0  9999
2 63830  43.0014 112.3466 0002064 256.8573 264.2649 16.00211582  1689
STARLINK-33940          
1 63831U 25092AD  25127.75002315 -.00908345  27728-3 -16380-2 0  9999
2 63831  43.0013 112.3414 0002080 253.6861 269.4724 16.00660819  1733
STARLINK-33978          
1 63832U 25092AE  25127.75002315 -.00887124  26473-3 -16277-2 0  9992
2 63832  43.0012 112.3448 0002153 258.0541 263.7568 16.00357029  1734
